NOAA 1 [-]              
1 04793U 70106A   23136.90258032 -.00000028  00000+0  96571-4 0  9993
2 04793 101.5039 196.6583 0031677  33.8092 140.5225 12.54015081399389
NOAA 2 (ITOS-D) [-]     
1 06235U 72082A   23136.70767251 -.00000018  00000+0  17676-3 0  9994
2 06235 101.9904 126.5135 0004199 152.4370  20.6657 12.53162110313713
NOAA 3 [-]              
1 06920U 73086A   23136.88401278 -.00000029  00000+0  12593-3 0  9998
2 06920 102.2463 124.9163 0006871  39.4868 325.9169 12.40356694242130
NOAA 4 [-]              
1 07529U 74089A   23136.88908699 -.00000036  00000+0  63058-4 0  9998
2 07529 101.9548 123.0478 0008879 183.6290 189.6598 12.53168604218316
NOAA 5 [-]              
1 09057U 76077A   23136.56169216 -.00000021  00000+0  18603-3 0  9993
2 09057 102.1514 106.6534 0009259 245.3655 224.0272 12.37784340114955
TIROS N [-]             
1 11060U 78096A   23136.85528143  .00000216  00000+0  12483-3 0  9998
2 11060  98.5853 185.9360 0009348 261.2389  98.7729 14.18562241518870
NOAA 6 [-]              
1 11416U 79057A   23136.74817110  .00000382  00000+0  15266-3 0  9990
2 11416  98.6526 153.0167 0010229   2.1197 358.0029 14.34042893289282
NOAA 7 [-]              
1 12553U 81059A   23136.85267509  .00000055  00000+0  49815-4 0  9996
2 12553  98.9485 189.5653 0010535 244.7051 115.3032 14.17408888165023
NOAA 8 [-]              
1 13923U 83022A   23136.74547230  .00000198  00000+0  95966-4 0  9996
2 13923  98.7121 131.4890 0014240 318.6837  41.3267 14.28979240 90009
NOAA 9 [-]              
1 15427U 84123A   23136.90209736  .00000164  00000+0  10574-3 0  9998
2 15427  99.0883 120.3149 0013952 303.4266  85.8861 14.16357107983812
NOAA 10 [-]             
1 16969U 86073A   23136.91439545  .00000184  00000+0  91106-4 0  9993
2 16969  98.6031 122.5738 0013248  58.4331   2.1696 14.28360220908436
NOAA 11 [-]             
1 19531U 88089A   23136.66567457  .00000078  00000+0  61191-4 0  9999
2 19531  98.4640 113.1017 0010132 302.4503  57.5691 14.15396401787953
NOAA 12 [-]             
1 21263U 91032A   23136.91261591  .00000131  00000+0  72707-4 0  9999
2 21263  98.5316 132.7000 0014879  84.3846 275.9031 14.26116036664253
NOAA 13 [-]             
1 22739U 93050A   23136.63773499  .00000198  00000+0  12857-3 0  9996
2 22739  98.5512 105.6212 0010638 107.5354 252.6982 14.12988107534103
NOAA 14 [-]             
1 23455U 94089A   23136.85800142  .00000071  00000+0  58421-4 0  9993
2 23455  98.4270 150.1504 0010714  86.4924 273.7476 14.14271578463833
NOAA 15 [B]             
1 25338U 98030A   23137.08035880  .00000261  00000+0  12681-3 0  9998
2 25338  98.6080 166.6661 0011195  49.8293 310.3865 14.26314832300821
NOAA 16 [-]             
1 26536U 00055A   23136.90170297  .00000100  00000+0  75583-4 0  9994
2 26536  98.5855 188.4628 0009375 295.6321  64.3883 14.13428149464455
NOAA 17 [-]             
1 27453U 02032A   23136.84123274  .00000204  00000+0  10530-3 0  9991
2 27453  98.7143  83.9530 0012389  27.7553 332.4286 14.25297409 86347
NOAA 18 [B]             
1 28654U 05018A   23137.12075490  .00000236  00000+0  15058-3 0  9995
2 28654  98.9099 211.6608 0015397 107.6211 252.6644 14.12935160927186
NOAA 19 [+]             
1 33591U 09005A   23137.09046065  .00000202  00000+0  13345-3 0  9993
2 33591  99.1020 182.5170 0013265 334.3500  25.7012 14.12753424735558
SUOMI NPP [+]           
1 37849U 11061A   23137.10006895  .00000095  00000+0  65841-4 0  9996
2 37849  98.7032  76.3481 0001253  70.9104  58.6679 14.19559826598523
NOAA 20 [+]             
1 43013U 17073A   23137.10928309  .00000058  00000+0  48125-4 0  9993
2 43013  98.7515  76.0070 0001118 109.0890 251.0407 14.19549358284569
NOAA 21 (JPSS-2) [+]    
1 54234U 22150A   23136.84352112  .00000100  00000+0  68248-4 0  9991
2 54234  98.7152  75.2881 0001309 100.8168 259.3155 14.19543833 26605
